{"type":"FeatureCollection","name":"secteurs-desservis-cabinet-infirmier-la-terrasse","description":"Secteurs desservis par le Cabinet Infirmier La Terrasse : contours administratifs des communes de La Terrasse, Lumbin et Le Touvet, hameaux desservis et adresse du cabinet.","source":"Contours communaux : API Découpage administratif (geo.api.gouv.fr), données OpenStreetMap sous licence ODbL. Points : relevés OpenStreetMap (WGS84).","crs":{"type":"name","properties":{"name":"urn:ogc:def:crs:OGC:1.3:CRS84"}},"features":[{"type":"Feature","properties":{"id":"zone-intervention","type":"perimetre","nom":"Zone d'intervention","detail":"Union des communes de La Terrasse, Lumbin et Le Touvet"},"geometry":{"type":"Polygon","coordinates":[[[5.95913,45.32923],[5.95902,45.32975],[5.95904,45.33009],[5.95908,45.33029],[5.95777,45.33083],[5.9594,45.33216],[5.95996,45.33255],[5.95861,45.33365],[5.95802,45.33395],[5.95915,45.33523],[5.96046,45.33655],[5.9608,45.33635],[5.96114,45.33651],[5.96106,45.33667],[5.9608,45.33694],[5.96103,45.33761],[5.96142,45.3376],[5.96381,45.33734],[5.96331,45.33828],[5.96175,45.33958],[5.96164,45.33976],[5.96141,45.34002],[5.9614,45.34014],[5.96168,45.34045],[5.96181,45.34078],[5.9619,45.34206],[5.96414,45.34231],[5.96451,45.34351],[5.96513,45.34434],[5.96617,45.34627],[5.96715,45.34644],[5.96714,45.34677],[5.96724,45.34724],[5.96734,45.34732],[5.96807,45.35103],[5.96854,45.35093],[5.97004,45.35179],[5.97044,45.35211],[5.97144,45.35268],[5.97161,45.35329],[5.97269,45.35318],[5.97548,45.35276],[5.97626,45.35395],[5.97642,45.35453],[5.97349,45.35561],[5.97274,45.35575],[5.97256,45.35586],[5.97209,45.3561],[5.9717,45.35623],[5.9708,45.35665],[5.97053,45.35687],[5.9704,45.35711],[5.97035,45.35738],[5.97037,45.35754],[5.96947,45.35777],[5.96558,45.35977],[5.96523,45.3599],[5.96349,45.36102],[5.96314,45.36123],[5.9637,45.36136],[5.96521,45.36165],[5.96569,45.36186],[5.96494,45.36225],[5.96277,45.36308],[5.96075,45.36397],[5.96022,45.36417],[5.95972,45.36445],[5.95932,45.3647],[5.95821,45.36485],[5.95665,45.36518],[5.95613,45.36538],[5.95583,45.36544],[5.95554,45.36554],[5.95493,45.36578],[5.95423,45.36609],[5.95384,45.36629],[5.95365,45.36646],[5.95338,45.36662],[5.95301,45.36678],[5.95282,45.36688],[5.95249,45.36697],[5.95226,45.36713],[5.95204,45.36735],[5.95188,45.36741],[5.95159,45.3676],[5.95108,45.36781],[5.95065,45.36791],[5.95039,45.36813],[5.9502,45.36823],[5.94988,45.36834],[5.94965,45.36839],[5.94945,45.36846],[5.94846,45.36877],[5.94817,45.3688],[5.94753,45.3688],[5.94741,45.36884],[5.94731,45.36894],[5.94661,45.36931],[5.94612,45.3696],[5.94557,45.36975],[5.94541,45.36981],[5.94495,45.37012],[5.94481,45.37019],[5.94431,45.37038],[5.94384,45.37059],[5.94345,45.37062],[5.94282,45.37056],[5.94235,45.37052],[5.94205,45.37053],[5.94155,45.37064],[5.94122,45.37065],[5.9409,45.37056],[5.9406,45.37051],[5.94028,45.37056],[5.93958,45.37117],[5.93917,45.37136],[5.93888,45.37144],[5.93827,45.3715],[5.93781,45.37163],[5.93741,45.3718],[5.93726,45.37183],[5.93693,45.37185],[5.93642,45.37181],[5.93604,45.37175],[5.93543,45.37168],[5.93494,45.37154],[5.93464,45.37155],[5.93446,45.37163],[5.93424,45.37182],[5.93413,45.37207],[5.934,45.37221],[5.9335,45.37229],[5.93287,45.37261],[5.93245,45.37285],[5.93179,45.37306],[5.93167,45.37308],[5.93173,45.3728],[5.93172,45.3727],[5.93143,45.37249],[5.9312,45.37226],[5.93097,45.37188],[5.9311,45.37175],[5.93127,45.37167],[5.9316,45.37142],[5.93182,45.37122],[5.93203,45.37107],[5.93221,45.371],[5.93242,45.37083],[5.93261,45.37058],[5.93298,45.3702],[5.93318,45.37008],[5.93339,45.36983],[5.93272,45.3691],[5.9315,45.3678],[5.93122,45.36739],[5.93096,45.36709],[5.9308,45.367],[5.93067,45.36674],[5.93065,45.36656],[5.9305,45.36612],[5.93046,45.3659],[5.93026,45.36566],[5.93019,45.36523],[5.93008,45.36493],[5.92997,45.36479],[5.92978,45.36464],[5.92969,45.36443],[5.92941,45.36423],[5.92926,45.36416],[5.92844,45.36398],[5.92833,45.36385],[5.92794,45.36358],[5.92773,45.36328],[5.92754,45.36312],[5.92732,45.36297],[5.92723,45.36288],[5.92683,45.36258],[5.92671,45.36235],[5.92652,45.3622],[5.92658,45.36202],[5.92658,45.36174],[5.92662,45.36151],[5.92657,45.36129],[5.92628,45.36078],[5.926,45.36049],[5.92557,45.35992],[5.92525,45.35931],[5.92548,45.35804],[5.92532,45.35746],[5.92498,45.35715],[5.92485,45.35693],[5.92417,45.35623],[5.92398,45.35529],[5.92369,45.35485],[5.92363,45.35387],[5.92313,45.35298],[5.92219,45.35216],[5.92196,45.35158],[5.92185,45.35062],[5.92199,45.35041],[5.92204,45.35028],[5.92206,45.34999],[5.92195,45.34964],[5.92214,45.34956],[5.92146,45.3488],[5.9212,45.34647],[5.92114,45.34562],[5.921,45.3454],[5.92069,45.34455],[5.92055,45.34316],[5.9199,45.3425],[5.91995,45.34208],[5.91983,45.34137],[5.91987,45.34103],[5.91997,45.33988],[5.91976,45.33984],[5.91787,45.33909],[5.91734,45.3387],[5.91668,45.33841],[5.91648,45.33824],[5.91568,45.33762],[5.91503,45.33739],[5.91363,45.33719],[5.913,45.33724],[5.91278,45.33637],[5.91251,45.33546],[5.91256,45.33503],[5.91293,45.33426],[5.91256,45.33373],[5.91101,45.33314],[5.91057,45.3329],[5.91107,45.3327],[5.91143,45.33204],[5.91153,45.33183],[5.91138,45.33159],[5.91136,45.33146],[5.91122,45.3313],[5.91066,45.33122],[5.91058,45.33116],[5.91086,45.33096],[5.91093,45.33079],[5.9112,45.33055],[5.91112,45.33022],[5.9107,45.33009],[5.91034,45.33006],[5.90999,45.33011],[5.9093,45.33001],[5.90955,45.32912],[5.91,45.32914],[5.91049,45.32892],[5.91079,45.329],[5.91141,45.32889],[5.9115,45.3289],[5.91191,45.32831],[5.91283,45.32883],[5.91296,45.32853],[5.9132,45.32824],[5.9134,45.32772],[5.91295,45.32758],[5.91281,45.32723],[5.91256,45.32695],[5.91221,45.32633],[5.91193,45.32611],[5.91137,45.32587],[5.91079,45.32572],[5.91023,45.32561],[5.90944,45.32518],[5.909,45.32511],[5.9089,45.32496],[5.90865,45.32507],[5.90846,45.32492],[5.90821,45.32493],[5.90705,45.32488],[5.90649,45.32436],[5.90546,45.32416],[5.90539,45.32408],[5.90485,45.32364],[5.9042,45.32353],[5.90387,45.32336],[5.90346,45.32288],[5.90347,45.32216],[5.90353,45.3218],[5.90388,45.32133],[5.9053,45.31958],[5.9055,45.31876],[5.90532,45.31824],[5.90541,45.31793],[5.90555,45.31776],[5.90573,45.31744],[5.90584,45.31713],[5.90585,45.3168],[5.90577,45.3167],[5.90514,45.31663],[5.90492,45.31656],[5.90477,45.31654],[5.90445,45.31614],[5.90342,45.31594],[5.90321,45.31564],[5.90336,45.31496],[5.90332,45.31437],[5.9029,45.3138],[5.90224,45.31333],[5.90143,45.31258],[5.90106,45.31173],[5.90065,45.31139],[5.90023,45.31081],[5.8999,45.3106],[5.89936,45.31008],[5.89921,45.30972],[5.89874,45.30942],[5.89759,45.30946],[5.8972,45.30934],[5.89681,45.30917],[5.89538,45.30853],[5.89487,45.3085],[5.89451,45.30857],[5.89475,45.30682],[5.89142,45.30612],[5.8891,45.30719],[5.88899,45.30652],[5.88834,45.30594],[5.88843,45.30583],[5.88836,45.30566],[5.89005,45.30494],[5.89032,45.30481],[5.89052,45.30468],[5.89081,45.30433],[5.89102,45.3042],[5.89199,45.30386],[5.89248,45.30373],[5.89293,45.30355],[5.89355,45.30327],[5.89422,45.30311],[5.89484,45.30298],[5.89511,45.30295],[5.89555,45.30287],[5.89583,45.30279],[5.89615,45.30265],[5.89636,45.30253],[5.8969,45.30213],[5.89716,45.30197],[5.89735,45.30182],[5.89758,45.30143],[5.89791,45.30075],[5.89805,45.30038],[5.89807,45.30027],[5.89798,45.30003],[5.89807,45.29967],[5.89815,45.29948],[5.89841,45.2991],[5.89898,45.2992],[5.89948,45.29873],[5.90076,45.29973],[5.9021,45.30076],[5.90275,45.30124],[5.90291,45.30137],[5.90542,45.30075],[5.90547,45.30066],[5.90527,45.30026],[5.90539,45.30008],[5.9075,45.29968],[5.90745,45.29919],[5.90733,45.29866],[5.90718,45.29846],[5.90708,45.29804],[5.90724,45.29784],[5.90678,45.29695],[5.90674,45.2968],[5.90673,45.29654],[5.90683,45.29636],[5.90806,45.29558],[5.90883,45.29507],[5.90988,45.29439],[5.91102,45.29363],[5.91124,45.2935],[5.9125,45.29247],[5.91334,45.29201],[5.91324,45.29193],[5.91307,45.29162],[5.91274,45.29114],[5.91267,45.291],[5.91266,45.2908],[5.91274,45.29016],[5.9127,45.29001],[5.91256,45.28968],[5.91229,45.28941],[5.91211,45.2893],[5.9113,45.2889],[5.91135,45.28883],[5.91103,45.28858],[5.91092,45.28839],[5.91062,45.28773],[5.9104,45.28735],[5.91026,45.28715],[5.91167,45.28611],[5.9144,45.28395],[5.91466,45.28399],[5.91507,45.28439],[5.9162,45.28511],[5.91678,45.28538],[5.91736,45.28709],[5.91878,45.28817],[5.9199,45.28893],[5.92261,45.29037],[5.92573,45.29197],[5.9264,45.29264],[5.92738,45.29359],[5.92903,45.29619],[5.93031,45.29895],[5.93031,45.30063],[5.93119,45.30336],[5.93211,45.30566],[5.93234,45.30623],[5.93241,45.30634],[5.93333,45.30792],[5.93677,45.31107],[5.94251,45.31434],[5.94662,45.31686],[5.94731,45.31704],[5.94767,45.31728],[5.94831,45.31781],[5.94895,45.31844],[5.95061,45.31962],[5.95183,45.32048],[5.95307,45.32122],[5.95393,45.32171],[5.9561,45.3233],[5.95672,45.32378],[5.95703,45.32413],[5.95726,45.32439],[5.95763,45.32517],[5.9584,45.32617],[5.96037,45.32859],[5.95938,45.32901],[5.95913,45.32923]]]}},{"type":"Feature","properties":{"id":"la-terrasse","type":"commune","nom":"La Terrasse","code":"38503","detail":"Commune du cabinet — hameaux du Carré et de Chonas"},"geometry":{"type":"Polygon","coordinates":[[[5.91987,45.34103],[5.92028,45.34101],[5.92148,45.34083],[5.92264,45.34089],[5.92448,45.34078],[5.92723,45.3398],[5.92837,45.33963],[5.92991,45.33958],[5.93161,45.3393],[5.93305,45.33877],[5.93386,45.33856],[5.93417,45.33841],[5.93492,45.33816],[5.93517,45.33802],[5.93777,45.33771],[5.93917,45.33763],[5.93954,45.33753],[5.93934,45.33731],[5.93958,45.33717],[5.94046,45.33696],[5.94222,45.33607],[5.94245,45.33611],[5.94376,45.3359],[5.94396,45.33583],[5.94425,45.33578],[5.9445,45.3357],[5.94507,45.33527],[5.9461,45.33486],[5.94615,45.33482],[5.94922,45.33403],[5.9515,45.33275],[5.95217,45.33223],[5.95322,45.33166],[5.95371,45.33132],[5.95426,45.33108],[5.95526,45.33051],[5.95913,45.32923],[5.95938,45.32901],[5.96037,45.32859],[5.9584,45.32617],[5.95763,45.32517],[5.95726,45.32439],[5.95703,45.32413],[5.95672,45.32378],[5.9561,45.3233],[5.95393,45.32171],[5.95307,45.32122],[5.95183,45.32048],[5.95061,45.31962],[5.94895,45.31844],[5.94831,45.31781],[5.94767,45.31728],[5.94731,45.31704],[5.94662,45.31686],[5.94251,45.31434],[5.93677,45.31107],[5.93333,45.30792],[5.93241,45.30634],[5.932,45.30646],[5.93142,45.30661],[5.93091,45.30703],[5.9305,45.30745],[5.93019,45.30769],[5.93024,45.30792],[5.9296,45.30821],[5.92903,45.30849],[5.92842,45.30865],[5.92779,45.30893],[5.9275,45.30911],[5.9273,45.30941],[5.92699,45.30965],[5.92683,45.30981],[5.92663,45.31022],[5.92631,45.31068],[5.9261,45.31104],[5.92568,45.31153],[5.92551,45.31177],[5.92528,45.31188],[5.92492,45.31189],[5.92459,45.31198],[5.92445,45.31213],[5.92425,45.31252],[5.92417,45.31271],[5.92403,45.31282],[5.92359,45.31307],[5.92342,45.31315],[5.92306,45.31319],[5.92281,45.3133],[5.92246,45.3137],[5.92185,45.31408],[5.92155,45.31425],[5.9209,45.31459],[5.92062,45.3148],[5.92019,45.31503],[5.91992,45.31524],[5.9197,45.31533],[5.9193,45.31546],[5.91907,45.31557],[5.91883,45.31574],[5.91835,45.31601],[5.91797,45.31632],[5.91777,45.31655],[5.91767,45.31671],[5.91753,45.31705],[5.91741,45.31724],[5.91714,45.31753],[5.91697,45.31765],[5.9166,45.31781],[5.91629,45.31803],[5.91592,45.31817],[5.91557,45.31826],[5.91546,45.31832],[5.91522,45.31855],[5.91484,45.31913],[5.91469,45.31931],[5.91456,45.31939],[5.9142,45.31947],[5.91383,45.31947],[5.91349,45.31952],[5.91328,45.31964],[5.91299,45.3199],[5.91269,45.32003],[5.91205,45.32021],[5.91143,45.32052],[5.91132,45.32054],[5.91076,45.32052],[5.91044,45.32053],[5.90998,45.32061],[5.90966,45.32087],[5.90906,45.32106],[5.90889,45.32117],[5.90847,45.32129],[5.90781,45.32168],[5.90756,45.32179],[5.90719,45.3219],[5.90679,45.32205],[5.90646,45.32215],[5.90584,45.32228],[5.90568,45.32227],[5.90517,45.32219],[5.90446,45.32219],[5.90347,45.32216],[5.90346,45.32288],[5.90387,45.32336],[5.9042,45.32353],[5.90485,45.32364],[5.90539,45.32408],[5.90546,45.32416],[5.90649,45.32436],[5.90705,45.32488],[5.90821,45.32493],[5.90846,45.32492],[5.90865,45.32507],[5.9089,45.32496],[5.909,45.32511],[5.90944,45.32518],[5.91023,45.32561],[5.91079,45.32572],[5.91137,45.32587],[5.91193,45.32611],[5.91221,45.32633],[5.91256,45.32695],[5.91281,45.32723],[5.91295,45.32758],[5.9134,45.32772],[5.9132,45.32824],[5.91296,45.32853],[5.91283,45.32883],[5.91191,45.32831],[5.9115,45.3289],[5.91141,45.32889],[5.91079,45.329],[5.91049,45.32892],[5.91,45.32914],[5.90955,45.32912],[5.9093,45.33001],[5.90999,45.33011],[5.91034,45.33006],[5.9107,45.33009],[5.91112,45.33022],[5.9112,45.33055],[5.91093,45.33079],[5.91086,45.33096],[5.91058,45.33116],[5.91066,45.33122],[5.91122,45.3313],[5.91136,45.33146],[5.91138,45.33159],[5.91153,45.33183],[5.91143,45.33204],[5.91107,45.3327],[5.91057,45.3329],[5.91101,45.33314],[5.91256,45.33373],[5.91293,45.33426],[5.91256,45.33503],[5.91251,45.33546],[5.91278,45.33637],[5.913,45.33724],[5.91363,45.33719],[5.91503,45.33739],[5.91568,45.33762],[5.91648,45.33824],[5.91668,45.33841],[5.91734,45.3387],[5.91787,45.33909],[5.91976,45.33984],[5.91997,45.33988],[5.91987,45.34103]]]}},{"type":"Feature","properties":{"id":"lumbin","type":"commune","nom":"Lumbin","code":"38214","detail":"Commune desservie — hameau du Petit Lumbin"},"geometry":{"type":"Polygon","coordinates":[[[5.93241,45.30634],[5.93234,45.30623],[5.93211,45.30566],[5.93119,45.30336],[5.93031,45.30063],[5.93031,45.29895],[5.92903,45.29619],[5.92738,45.29359],[5.9264,45.29264],[5.92573,45.29197],[5.92261,45.29037],[5.9199,45.28893],[5.91878,45.28817],[5.91736,45.28709],[5.91678,45.28538],[5.9162,45.28511],[5.91507,45.28439],[5.91466,45.28399],[5.9144,45.28395],[5.91167,45.28611],[5.91026,45.28715],[5.9104,45.28735],[5.91062,45.28773],[5.91092,45.28839],[5.91103,45.28858],[5.91135,45.28883],[5.9113,45.2889],[5.91211,45.2893],[5.91229,45.28941],[5.91256,45.28968],[5.9127,45.29001],[5.91274,45.29016],[5.91266,45.2908],[5.91267,45.291],[5.91274,45.29114],[5.91307,45.29162],[5.91324,45.29193],[5.91334,45.29201],[5.9125,45.29247],[5.91124,45.2935],[5.91102,45.29363],[5.90988,45.29439],[5.90883,45.29507],[5.90806,45.29558],[5.90683,45.29636],[5.90673,45.29654],[5.90674,45.2968],[5.90678,45.29695],[5.90724,45.29784],[5.90708,45.29804],[5.90718,45.29846],[5.90733,45.29866],[5.90745,45.29919],[5.9075,45.29968],[5.90539,45.30008],[5.90527,45.30026],[5.90547,45.30066],[5.90542,45.30075],[5.90291,45.30137],[5.90275,45.30124],[5.9021,45.30076],[5.90076,45.29973],[5.89948,45.29873],[5.89898,45.2992],[5.89841,45.2991],[5.89815,45.29948],[5.89807,45.29967],[5.89798,45.30003],[5.89807,45.30027],[5.89805,45.30038],[5.89791,45.30075],[5.89758,45.30143],[5.89735,45.30182],[5.89716,45.30197],[5.8969,45.30213],[5.89636,45.30253],[5.89615,45.30265],[5.89583,45.30279],[5.89555,45.30287],[5.89511,45.30295],[5.89484,45.30298],[5.89422,45.30311],[5.89355,45.30327],[5.89293,45.30355],[5.89248,45.30373],[5.89199,45.30386],[5.89102,45.3042],[5.89081,45.30433],[5.89052,45.30468],[5.89032,45.30481],[5.89005,45.30494],[5.88836,45.30566],[5.88843,45.30583],[5.88834,45.30594],[5.88899,45.30652],[5.8891,45.30719],[5.89142,45.30612],[5.89475,45.30682],[5.89451,45.30857],[5.89487,45.3085],[5.89538,45.30853],[5.89681,45.30917],[5.8972,45.30934],[5.89759,45.30946],[5.89874,45.30942],[5.89921,45.30972],[5.89936,45.31008],[5.8999,45.3106],[5.90023,45.31081],[5.90065,45.31139],[5.90106,45.31173],[5.90143,45.31258],[5.90224,45.31333],[5.9029,45.3138],[5.90332,45.31437],[5.90336,45.31496],[5.90321,45.31564],[5.90342,45.31594],[5.90445,45.31614],[5.90477,45.31654],[5.90492,45.31656],[5.90514,45.31663],[5.90577,45.3167],[5.90585,45.3168],[5.90584,45.31713],[5.90573,45.31744],[5.90555,45.31776],[5.90541,45.31793],[5.90532,45.31824],[5.9055,45.31876],[5.9053,45.31958],[5.90388,45.32133],[5.90353,45.3218],[5.90347,45.32216],[5.90446,45.32219],[5.90517,45.32219],[5.90568,45.32227],[5.90584,45.32228],[5.90646,45.32215],[5.90679,45.32205],[5.90719,45.3219],[5.90756,45.32179],[5.90781,45.32168],[5.90847,45.32129],[5.90889,45.32117],[5.90906,45.32106],[5.90966,45.32087],[5.90998,45.32061],[5.91044,45.32053],[5.91076,45.32052],[5.91132,45.32054],[5.91143,45.32052],[5.91205,45.32021],[5.91269,45.32003],[5.91299,45.3199],[5.91328,45.31964],[5.91349,45.31952],[5.91383,45.31947],[5.9142,45.31947],[5.91456,45.31939],[5.91469,45.31931],[5.91484,45.31913],[5.91522,45.31855],[5.91546,45.31832],[5.91557,45.31826],[5.91592,45.31817],[5.91629,45.31803],[5.9166,45.31781],[5.91697,45.31765],[5.91714,45.31753],[5.91741,45.31724],[5.91753,45.31705],[5.91767,45.31671],[5.91777,45.31655],[5.91797,45.31632],[5.91835,45.31601],[5.91883,45.31574],[5.91907,45.31557],[5.9193,45.31546],[5.9197,45.31533],[5.91992,45.31524],[5.92019,45.31503],[5.92062,45.3148],[5.9209,45.31459],[5.92155,45.31425],[5.92185,45.31408],[5.92246,45.3137],[5.92281,45.3133],[5.92306,45.31319],[5.92342,45.31315],[5.92359,45.31307],[5.92403,45.31282],[5.92417,45.31271],[5.92425,45.31252],[5.92445,45.31213],[5.92459,45.31198],[5.92492,45.31189],[5.92528,45.31188],[5.92551,45.31177],[5.92568,45.31153],[5.9261,45.31104],[5.92631,45.31068],[5.92663,45.31022],[5.92683,45.30981],[5.92699,45.30965],[5.9273,45.30941],[5.9275,45.30911],[5.92779,45.30893],[5.92842,45.30865],[5.92903,45.30849],[5.9296,45.30821],[5.93024,45.30792],[5.93019,45.30769],[5.9305,45.30745],[5.93091,45.30703],[5.93142,45.30661],[5.932,45.30646],[5.93241,45.30634]]]}},{"type":"Feature","properties":{"id":"le-touvet","type":"commune","nom":"Le Touvet","code":"38511","detail":"Commune desservie — hameaux de La Frette et de Montabon"},"geometry":{"type":"Polygon","coordinates":[[[5.95913,45.32923],[5.95526,45.33051],[5.95426,45.33108],[5.95371,45.33132],[5.95322,45.33166],[5.95217,45.33223],[5.9515,45.33275],[5.94922,45.33403],[5.94615,45.33482],[5.9461,45.33486],[5.94507,45.33527],[5.9445,45.3357],[5.94425,45.33578],[5.94396,45.33583],[5.94376,45.3359],[5.94245,45.33611],[5.94222,45.33607],[5.94046,45.33696],[5.93958,45.33717],[5.93934,45.33731],[5.93954,45.33753],[5.93917,45.33763],[5.93777,45.33771],[5.93517,45.33802],[5.93492,45.33816],[5.93417,45.33841],[5.93386,45.33856],[5.93305,45.33877],[5.93161,45.3393],[5.92991,45.33958],[5.92837,45.33963],[5.92723,45.3398],[5.92448,45.34078],[5.92264,45.34089],[5.92148,45.34083],[5.92028,45.34101],[5.91987,45.34103],[5.91983,45.34137],[5.91995,45.34208],[5.9199,45.3425],[5.92055,45.34316],[5.92069,45.34455],[5.921,45.3454],[5.92114,45.34562],[5.9212,45.34647],[5.92146,45.3488],[5.92214,45.34956],[5.92195,45.34964],[5.92206,45.34999],[5.92204,45.35028],[5.92199,45.35041],[5.92185,45.35062],[5.92196,45.35158],[5.92219,45.35216],[5.92313,45.35298],[5.92363,45.35387],[5.92369,45.35485],[5.92398,45.35529],[5.92417,45.35623],[5.92485,45.35693],[5.92498,45.35715],[5.92532,45.35746],[5.92548,45.35804],[5.92525,45.35931],[5.92557,45.35992],[5.926,45.36049],[5.92628,45.36078],[5.92657,45.36129],[5.92662,45.36151],[5.92658,45.36174],[5.92658,45.36202],[5.92652,45.3622],[5.92671,45.36235],[5.92683,45.36258],[5.92723,45.36288],[5.92732,45.36297],[5.92754,45.36312],[5.92773,45.36328],[5.92794,45.36358],[5.92833,45.36385],[5.92844,45.36398],[5.92926,45.36416],[5.92941,45.36423],[5.92969,45.36443],[5.92978,45.36464],[5.92997,45.36479],[5.93008,45.36493],[5.93019,45.36523],[5.93026,45.36566],[5.93046,45.3659],[5.9305,45.36612],[5.93065,45.36656],[5.93067,45.36674],[5.9308,45.367],[5.93096,45.36709],[5.93122,45.36739],[5.9315,45.3678],[5.93272,45.3691],[5.93339,45.36983],[5.93318,45.37008],[5.93298,45.3702],[5.93261,45.37058],[5.93242,45.37083],[5.93221,45.371],[5.93203,45.37107],[5.93182,45.37122],[5.9316,45.37142],[5.93127,45.37167],[5.9311,45.37175],[5.93097,45.37188],[5.9312,45.37226],[5.93143,45.37249],[5.93172,45.3727],[5.93173,45.3728],[5.93167,45.37308],[5.93179,45.37306],[5.93245,45.37285],[5.93287,45.37261],[5.9335,45.37229],[5.934,45.37221],[5.93413,45.37207],[5.93424,45.37182],[5.93446,45.37163],[5.93464,45.37155],[5.93494,45.37154],[5.93543,45.37168],[5.93604,45.37175],[5.93642,45.37181],[5.93693,45.37185],[5.93726,45.37183],[5.93741,45.3718],[5.93781,45.37163],[5.93827,45.3715],[5.93888,45.37144],[5.93917,45.37136],[5.93958,45.37117],[5.94028,45.37056],[5.9406,45.37051],[5.9409,45.37056],[5.94122,45.37065],[5.94155,45.37064],[5.94205,45.37053],[5.94235,45.37052],[5.94282,45.37056],[5.94345,45.37062],[5.94384,45.37059],[5.94431,45.37038],[5.94481,45.37019],[5.94495,45.37012],[5.94541,45.36981],[5.94557,45.36975],[5.94612,45.3696],[5.94661,45.36931],[5.94731,45.36894],[5.94741,45.36884],[5.94753,45.3688],[5.94817,45.3688],[5.94846,45.36877],[5.94945,45.36846],[5.94965,45.36839],[5.94988,45.36834],[5.9502,45.36823],[5.95039,45.36813],[5.95065,45.36791],[5.95108,45.36781],[5.95159,45.3676],[5.95188,45.36741],[5.95204,45.36735],[5.95226,45.36713],[5.95249,45.36697],[5.95282,45.36688],[5.95301,45.36678],[5.95338,45.36662],[5.95365,45.36646],[5.95384,45.36629],[5.95423,45.36609],[5.95493,45.36578],[5.95554,45.36554],[5.95583,45.36544],[5.95613,45.36538],[5.95665,45.36518],[5.95821,45.36485],[5.95932,45.3647],[5.95972,45.36445],[5.96022,45.36417],[5.96075,45.36397],[5.96277,45.36308],[5.96494,45.36225],[5.96569,45.36186],[5.96521,45.36165],[5.9637,45.36136],[5.96314,45.36123],[5.96349,45.36102],[5.96523,45.3599],[5.96558,45.35977],[5.96947,45.35777],[5.97037,45.35754],[5.97035,45.35738],[5.9704,45.35711],[5.97053,45.35687],[5.9708,45.35665],[5.9717,45.35623],[5.97209,45.3561],[5.97256,45.35586],[5.97274,45.35575],[5.97349,45.35561],[5.97642,45.35453],[5.97626,45.35395],[5.97548,45.35276],[5.97269,45.35318],[5.97161,45.35329],[5.97144,45.35268],[5.97044,45.35211],[5.97004,45.35179],[5.96854,45.35093],[5.96807,45.35103],[5.96734,45.34732],[5.96724,45.34724],[5.96714,45.34677],[5.96715,45.34644],[5.96617,45.34627],[5.96513,45.34434],[5.96451,45.34351],[5.96414,45.34231],[5.9619,45.34206],[5.96181,45.34078],[5.96168,45.34045],[5.9614,45.34014],[5.96141,45.34002],[5.96164,45.33976],[5.96175,45.33958],[5.96331,45.33828],[5.96381,45.33734],[5.96142,45.3376],[5.96103,45.33761],[5.9608,45.33694],[5.96106,45.33667],[5.96114,45.33651],[5.9608,45.33635],[5.96046,45.33655],[5.95915,45.33523],[5.95802,45.33395],[5.95861,45.33365],[5.95996,45.33255],[5.9594,45.33216],[5.95777,45.33083],[5.95908,45.33029],[5.95904,45.33009],[5.95902,45.32975],[5.95913,45.32923]]]}},{"type":"Feature","properties":{"id":"petit-lumbin","type":"hameau","nom":"Petit Lumbin","commune":"Lumbin","detail":"Hameau de Lumbin"},"geometry":{"type":"Point","coordinates":[5.91732,45.31645]}},{"type":"Feature","properties":{"id":"la-frette","type":"hameau","nom":"La Frette","commune":"Le Touvet","detail":"Hameau du Touvet"},"geometry":{"type":"Point","coordinates":[5.94033,45.33957]}},{"type":"Feature","properties":{"id":"le-carre","type":"hameau","nom":"Le Carré","commune":"La Terrasse","detail":"Hameau de La Terrasse"},"geometry":{"type":"Point","coordinates":[5.92369,45.31471]}},{"type":"Feature","properties":{"id":"chonas","type":"hameau","nom":"Chonas","commune":"La Terrasse","detail":"Hameau de La Terrasse"},"geometry":{"type":"Point","coordinates":[5.94017,45.32389]}},{"type":"Feature","properties":{"id":"route-de-montabon","type":"hameau","nom":"Route de Montabon","commune":"Le Touvet","detail":"Hameau de Montabon, commune du Touvet"},"geometry":{"type":"Point","coordinates":[5.93332,45.34521]}},{"type":"Feature","properties":{"id":"cabinet","type":"cabinet","nom":"Cabinet Infirmier La Terrasse","commune":"La Terrasse","detail":"31 impasse du Buis — Carré Santé, 38660 La Terrasse"},"geometry":{"type":"Point","coordinates":[5.92299,45.31559]}}]}
